[{"OBJECT_NAME":"A-SEANSAT-PG1","OBJECT_ID":"2023-091AH","EPOCH":"2026-03-09T22:32:06.495648","MEAN_MOTION":15.33422293,"ECCENTRICITY":0.00088895,"INCLINATION":97.5184,"RA_OF_ASC_NODE":136.6191,"ARG_OF_PERICENTER":78.3219,"MEAN_ANOMALY":281.902,"EPHEMERIS_TYPE":0,"CLASSIFICATION_TYPE":"U","NORAD_CAT_ID":57197,"ELEMENT_SET_NO":999,"REV_AT_EPOCH":14948,"BSTAR":0.0007038551,"MEAN_MOTION_DOT":0.00022724,"MEAN_MOTION_DDOT":0},{"OBJECT_NAME":"STARLINK-34554","OBJECT_ID":"2025-139Z","EPOCH":"2026-03-09T13:02:26.219328","MEAN_MOTION":15.30189966,"ECCENTRICITY":0.00011852,"INCLINATION":53.1599,"RA_OF_ASC_NODE":127.5782,"ARG_OF_PERICENTER":80.7338,"MEAN_ANOMALY":279.3796,"EPHEMERIS_TYPE":0,"CLASSIFICATION_TYPE":"U","NORAD_CAT_ID":64687,"ELEMENT_SET_NO":999,"REV_AT_EPOCH":4026,"BSTAR":0.0006940519,"MEAN_MOTION_DOT":0.00020246,"MEAN_MOTION_DDOT":0}]
